OBJECT_NAME,OBJECT_ID,EPOCH,MEAN_MOTION,ECCENTRICITY,INCLINATION,RA_OF_ASC_NODE,ARG_OF_PERICENTER,MEAN_ANOMALY,EPHEMERIS_TYPE,CLASSIFICATION_TYPE,NORAD_CAT_ID,ELEMENT_SET_NO,REV_AT_EPOCH,BSTAR,MEAN_MOTION_DOT,MEAN_MOTION_DDOT
GALAXY 30 (G-30),2020-056C,2026-06-05T18:03:21.158208,1.00272554,.0002393,0.0166,328.3240,103.7642,327.9175,0,U,46114,999,2117,0,.49E-6,0
GAOFEN-13 01,2020-071A,2026-06-05T19:12:48.694176,1.00265267,.0041836,0.4912,84.9567,122.7588,92.8203,0,U,46610,999,2080,0,-.35E-5,0
TIANTONG-1 2,2020-082A,2026-06-05T20:57:16.838784,1.00269676,.0001557,0.8058,325.8484,106.0200,261.6983,0,U,46916,999,2053,0,-.343E-5,0
LUCAS (JDRS-1),2020-089A,2026-06-05T17:16:38.691264,1.00269157,.0002773,0.0353,273.1989,147.8743,183.0109,0,U,47202,999,2030,0,-.222E-5,0
SXM-7,2020-096A,2026-06-05T09:41:21.065856,1.00273132,.0004346,0.0333,112.5259,12.3808,189.1172,0,U,47240,999,732,0,-.193E-5,0
CMS-01,2020-099A,2026-06-05T19:14:30.392160,1.00270860,.0003508,0.0697,101.2011,183.4400,341.2116,0,U,47256,999,2008,0,-.152E-5,0
TURKSAT 5A,2021-001A,2026-06-05T17:05:14.520768,1.00272430,.0000201,0.0157,47.9281,38.7577,94.7084,0,U,47306,999,1985,0,.167E-5,0
TIANTONG-1 3,2021-003A,2026-06-05T20:50:54.477312,1.00273085,.0003546,1.7655,338.5989,101.5830,208.3842,0,U,47321,999,1984,0,-.144E-5,0
TJS-6,2021-010A,2026-06-02T12:47:20.190048,1.00272435,.00026319,0.5630,87.7253,337.8803,195.7324,0,U,47613,999,1966,0,.55E-6,0
SBIRS GEO-5 (USA 315),2021-042A,2026-06-05T16:52:21.714240,1.00271940,.0001728,5.1185,329.0326,116.0706,155.9359,0,U,48618,999,1865,0,-.259E-5,0
FENGYUN 4B,2021-047A,2026-06-05T14:00:51.750720,1.00266147,.0005178,0.1239,75.7773,289.8220,203.2690,0,U,48808,999,1845,0,-.317E-5,0
SXM-8,2021-049A,2026-06-05T14:49:24.887424,1.00269181,.0004915,0.0212,19.6277,13.2799,358.3518,0,U,48838,999,1846,0,-.193E-5,0
TIANLIAN 1-05,2021-063A,2026-06-05T20:26:31.130880,1.00272832,.0001069,1.5639,80.7966,315.1895,181.7505,0,U,49011,999,1796,0,.121E-5,0
STAR ONE D2,2021-069A,2026-06-05T10:57:33.414336,1.00273562,.000201,0.0118,347.6864,110.9827,249.5200,0,U,49055,999,1782,0,0,0
EUTELSAT QUANTUM,2021-069B,2026-06-05T18:52:38.346816,1.00271498,.0002476,0.0111,331.1613,99.4243,154.4889,0,U,49056,999,1781,0,.139E-5,0
ZHONGXING-2E,2021-071A,2026-06-05T18:38:44.541024,1.00269699,.0002254,0.0437,95.7802,44.7214,131.4425,0,U,49062,999,1792,0,-.278E-5,0
TJS-7,2021-077A,2026-06-05T14:45:17.780832,1.00271574,.0002545,0.4789,86.2340,333.0072,316.6780,0,U,49115,999,943,0,-.112E-5,0
CHINASAT 9B,2021-080A,2026-06-05T21:25:45.595776,1.00274987,.0001673,0.0182,64.5198,33.2487,219.3921,0,U,49125,999,1753,0,-.3E-5,0
SHIJIAN-21 (SJ-21),2021-094A,2026-06-05T18:35:50.013888,1.00277306,.0049398,5.0855,61.2477,167.9537,71.9148,0,U,49330,999,524,0,-.335E-5,0
SES-17,2021-095A,2026-06-05T13:11:54.790944,1.00274659,.0001257,0.0256,35.0891,56.0020,293.7793,0,U,49332,999,1773,0,-.26E-5,0
SYRACUSE 4A,2021-095B,2026-06-05T05:10:43.714272,1.00269576,.0001352,0.0167,333.7085,98.7464,304.3786,0,U,49333,999,1782,0,.147E-5,0
QZS-1R (MICHIBIKI-1R),2021-096A,2026-06-05T15:49:42.294720,1.00260126,.0754176,37.4382,79.7551,271.5566,274.8683,0,U,49336,999,1689,0,-.239E-5,0
ZHONGXING-1D,2021-114A,2026-06-05T20:58:46.694784,1.00274372,.0000298,0.0447,245.0488,329.4374,124.6687,0,U,49505,999,1670,0,-.323E-5,0
STPSAT-6,2021-118A,2026-06-05T16:24:31.234176,1.00273688,.000146,0.2904,85.5291,262.8998,40.1136,0,U,49817,999,1645,0,-.33E-6,0
EXPRESS AMU-7,2021-123A,2026-06-02T17:09:12.228768,1.00271575,.00006225,0.0165,304.5721,41.0591,307.8527,0,U,50001,999,1639,0,-.23E-5,0
EXPRESS AMU-3,2021-123B,2026-06-05T00:14:14.039808,1.00272604,.0000525,0.0153,307.5577,353.9385,58.5038,0,U,50002,999,691,0,-.309E-5,0
TIANLIAN 2-02,2021-124A,2026-06-05T19:27:47.260224,1.00272705,.0001202,0.7719,86.3078,225.4761,45.3766,0,U,50005,999,1650,0,-.1E-7,0
TURKSAT 5B,2021-126A,2026-06-05T18:51:01.004256,1.00267923,.0003481,0.0680,340.7904,20.2395,217.9399,0,U,50212,999,1618,0,.159E-5,0
INMARSAT 6-F1,2021-128A,2026-06-05T19:14:30.330816,1.00270328,.0000347,0.0148,301.0801,215.3481,110.1836,0,U,50319,999,1614,0,-.159E-5,0
SHIYAN-12 01 (SY-12 01),2021-129A,2026-06-05T17:57:00.674208,1.00038143,.0003521,3.6444,80.0639,289.9045,223.1560,0,U,50321,999,1638,0,.23E-6,0
SHIYAN-12 02 (SY-12 02),2021-129B,2026-06-05T17:14:47.510016,1.00492384,.0002712,3.6440,80.0711,51.1091,101.5202,0,U,50322,999,1638,0,-.171E-5,0
TJS-9,2021-135A,2026-06-05T21:00:46.503936,1.00273275,.0004915,0.0639,257.0703,150.2174,299.4162,0,U,50574,999,1631,0,-.286E-5,0
GOES 18,2022-021A,2026-06-05T17:59:58.981344,1.00272064,.0000611,0.0408,133.9267,351.5599,261.6872,0,U,51850,999,647,0,.109E-5,0
ZHONGXING-6D,2022-038A,2026-06-04T22:46:07.508928,1.00271059,.0000308,0.0315,94.9671,254.6094,10.4279,0,U,52255,999,1530,0,-.341E-5,0
NILESAT 301,2022-061A,2026-06-05T18:37:03.445248,1.00272107,.0005627,0.0537,22.1678,21.0265,123.2702,0,U,52817,999,1462,0,-.45E-6,0
CMS-02 (GSAT-24),2022-067A,2026-06-05T19:14:30.328224,1.00271667,.0001858,0.0159,76.5523,297.8497,251.4653,0,U,52903,999,1449,0,-.152E-5,0
MEASAT 3D,2022-067B,2026-06-05T17:16:38.691264,1.00271068,.0001325,0.0273,354.3840,42.2901,208.1447,0,U,52904,999,1453,0,-.229E-5,0
SES-22,2022-071A,2026-06-05T17:59:21.539040,1.00273158,.000134,0.0143,356.5277,70.3921,318.0974,0,U,52933,999,740,0,.117E-5,0
WFOV (USA 332),2022-073A,2026-06-05T19:13:03.669024,1.00273592,.0002165,3.6810,78.6745,248.0643,335.0096,0,U,52940,999,1425,0,-.35E-5,0
TIANLIAN 2-03,2022-078A,2026-06-05T18:42:02.967264,1.00272273,.0001534,0.6433,76.7966,315.4197,153.0911,0,U,53100,999,1443,0,.85E-6,0
SBIRS GEO-6 (USA 336),2022-092A,2026-06-05T11:22:38.845344,1.00271489,.0002164,3.2782,317.2894,114.2781,132.0146,0,U,53355,999,1411,0,-.281E-5,0
EUTELSAT KONNECT VHTS,2022-110A,2026-06-05T08:23:47.943744,1.00271183,.0002878,0.0660,104.1914,316.7287,321.5236,0,U,53765,999,671,0,.29E-6,0
ZHONGXING-1E,2022-112A,2026-06-05T20:44:55.521600,1.00271212,.0000365,0.0410,104.6659,261.5280,280.7446,0,U,53813,999,1373,0,-.137E-5,0
SES-20,2022-123A,2026-06-05T14:44:17.877120,1.00272764,.0002158,0.0365,76.2394,4.3316,291.4558,0,U,53960,999,1341,0,-.89E-6,0
SES-21,2022-123B,2026-06-05T11:54:38.453760,1.00270202,.0000846,0.0279,33.4670,38.9311,229.1777,0,U,53961,999,709,0,.82E-6,0
GALAXY 33 (G-33),2022-128A,2026-06-05T16:18:24.319296,1.00271983,.000199,0.0188,41.4682,33.6303,290.6250,0,U,54026,999,1362,0,.91E-6,0
GALAXY 34 (G-34),2022-128B,2026-06-05T16:19:31.712160,1.00277143,.000215,0.0097,19.8053,65.6071,284.5904,0,U,54027,999,1379,0,.71E-6,0
ANGOSAT 2,2022-131A,2026-06-03T13:42:55.162656,1.00272126,.0001675,0.0320,77.4861,43.8281,359.4453,0,U,54033,999,1334,0,.147E-5,0
EUTELSAT HOTBIRD 13F,2022-134A,2026-06-05T18:42:40.406112,1.00269277,.0001892,0.0477,290.9678,77.8054,179.1109,0,U,54048,999,1326,0,.99E-6,0
LDPE-2,2022-144A,2026-06-05T14:15:39.070944,1.00528214,.0001705,5.5847,63.7457,91.4141,144.5119,0,U,54219,999,1172,0,.135E-5,0
EUTELSAT HOTBIRD 13G,2022-146A,2026-06-05T18:42:40.406112,1.00270674,.0002169,0.0464,232.3850,303.5496,11.9411,0,U,54225,999,735,0,.1E-5,0
ZHONGXING-19,2022-148A,2026-06-05T04:01:37.799040,1.00270450,.00023678,0.0304,274.7015,183.6689,18.8299,0,U,54230,999,1326,0,-.69E-6,0
GALAXY 31 (G-31),2022-153A,2026-06-05T16:21:46.497024,1.00272196,.0001461,0.0176,69.8885,5.4863,303.1817,0,U,54243,999,701,0,.26E-6,0
GALAXY 32 (G-32),2022-153B,2026-06-05T14:47:47.542272,1.00272347,.0002392,0.0122,18.4604,19.3167,347.2237,0,U,54244,999,1302,0,-.162E-5,0
EUTELSAT 10B,2022-157A,2026-06-04T23:52:34.690944,1.00270897,.00024584,0.0641,101.7982,9.9155,149.8574,0,U,54259,999,1290,0,.8E-6,0
GALAXY 35 (G-35),2022-170A,2026-06-05T14:47:10.100832,1.00272268,.0002244,0.0133,28.4776,49.5379,304.7294,0,U,54741,999,1277,0,-.15E-5,0
GALAXY 36 (G-36),2022-170B,2026-06-05T14:48:17.492832,1.00271918,.0002808,0.0127,255.2674,186.6505,305.2124,0,U,54742,999,1265,0,-.173E-5,0
METEOSAT-12 (MTG-I1),2022-170C,2026-06-05T18:38:55.766112,1.00271518,.0003527,0.7255,21.0068,69.9576,82.5488,0,U,54743,999,1286,0,.4E-7,0
SHIJIAN-23 (SJ-23),2023-002A,2026-06-05T17:59:56.976864,1.00090672,.0003906,3.6875,78.4564,277.5111,323.8270,0,U,55131,999,1239,0,-.175E-5,0
APSTAR-6E,2023-005A,2026-06-03T19:22:40.588608,1.00269237,.0001095,0.0296,251.9045,264.1846,160.8472,0,U,55239,999,1855,0,-.306E-5,0
USA 342,2023-008A,2026-06-04T03:24:27.751104,1.00271932,.0000373,0.0087,134.3874,135.9762,57.1445,0,U,55263,999,1238,0,.15E-5,0
LDPE-3A,2023-008B,2026-06-05T13:13:24.646944,0.99148108,.0001213,2.3168,81.8071,42.9877,265.6702,0,U,55264,999,1169,0,-.161E-5,0
ELEKTRO-L 4,2023-016A,2026-06-04T20:03:43.488000,1.00272511,.0000705,0.0739,183.9434,356.3835,179.6781,0,U,55506,999,1221,0,-.46E-6,0
AMAZONAS NEXUS,2023-017A,2026-06-05T13:13:39.624384,1.00270208,.0005391,0.0380,34.5795,27.5428,329.2887,0,U,55508,999,692,0,-.27E-5,0
ZHONGXING-26,2023-023A,2026-06-05T07:16:06.469824,1.00269832,.00041451,0.0711,72.6528,9.0865,46.1491,0,U,55686,999,1211,0,-.341E-5,0
LUCH-5X (OLYMP-K 2),2023-031A,2026-06-05T18:31:33.145824,1.00273024,.0000838,0.0251,55.0766,169.0546,9.9167,0,U,55841,999,1182,0,.46E-6,0
GAOFEN-13 02,2023-036A,2026-06-05T16:03:09.262080,1.00274019,.0004206,1.0187,359.6157,342.7251,300.8224,0,U,55912,999,1197,0,-.206E-5,0
SES-18,2023-038A,2026-06-05T14:44:17.877120,1.00272023,.0000429,0.0119,300.1205,67.3708,4.5385,0,U,55970,999,1198,0,-.89E-6,0
SES-19,2023-038B,2026-06-05T18:00:36.421056,1.00271028,.0001846,0.0268,295.0875,143.8329,310.5162,0,U,55971,999,1197,0,.1E-5,0
INTELSAT 40E (IS-40E),2023-052A,2026-06-05T14:47:47.542272,1.00272077,.0002102,0.0147,65.6918,50.3832,268.9272,0,U,56174,999,1170,0,-.162E-5,0
VIASAT-3 F1,2023-060A,2026-06-05T14:48:17.492832,1.00268237,.0000942,0.0237,321.2740,100.6263,325.2306,0,U,56370,999,1131,0,0,0
ARCTURUS,2023-060B,2026-06-04T23:55:38.477568,1.00271595,.00020772,2.7452,80.0883,41.1603,203.5690,0,U,56371,999,1133,0,-.51E-6,0
